[Satellite]
VERSION=1.1
NAME=CELESTIS-03
NICKNAME=CELESTIS-03
TLE1=1 26034U 99070C   17186.22386605  .00001778  00000-0  12390-3 0  9996
TLE2=2 26034  98.3207  21.3766 0014893 100.0515 260.2391 15.06845491948151
